[{"OBJECT_NAME":"STARLINK-1301","OBJECT_ID":"2020-019B","EPOCH":"2026-03-09T09:42:49.180896","MEAN_MOTION":15.64882929,"ECCENTRICITY":0.00012119,"INCLINATION":53.0421,"RA_OF_ASC_NODE":105.4706,"ARG_OF_PERICENTER":185.0942,"MEAN_ANOMALY":175.006,"EPHEMERIS_TYPE":0,"CLASSIFICATION_TYPE":"U","NORAD_CAT_ID":45361,"ELEMENT_SET_NO":999,"REV_AT_EPOCH":33056,"BSTAR":0.00054273222,"MEAN_MOTION_DOT":0.00053854,"MEAN_MOTION_DDOT":0},{"OBJECT_NAME":"STARLINK-1931","OBJECT_ID":"2020-074BD","EPOCH":"2026-03-09T21:13:00.539328","MEAN_MOTION":15.65028532,"ECCENTRICITY":0.00014438,"INCLINATION":53.0448,"RA_OF_ASC_NODE":282.2511,"ARG_OF_PERICENTER":17.7174,"MEAN_ANOMALY":342.3891,"EPHEMERIS_TYPE":0,"CLASSIFICATION_TYPE":"U","NORAD_CAT_ID":46790,"ELEMENT_SET_NO":999,"REV_AT_EPOCH":29724,"BSTAR":0.0009294565,"MEAN_MOTION_DOT":0.00093618,"MEAN_MOTION_DDOT":0}]
